ISS OBJECT XW           
1 66910U 98067XW  26050.71028266  .00105802  00000+0  10922-2 0  9998
2 66910  51.6263 156.8403 0003355 358.0984   1.9997 15.63947366 12364
ISS OBJECT XX           
1 66911U 98067XX  26050.51504240  .00153219  00000+0  13523-2 0  9993
2 66911  51.6244 157.0316 0005193 349.8357  10.2534 15.67669066 12333
ISS OBJECT XY           
1 66912U 98067XY  26050.53909729  .00070748  00000+0  84295-3 0  9997
2 66912  51.6295 158.7086 0001436   4.3169 355.7836 15.60432947 12311
ISS OBJECT XZ           
1 67683U 98067XZ  26050.55831542  .00034476  00000+0  60149-3 0  9992
2 67683  51.6324 161.8342 0010271 126.3506 233.8432 15.50320477  1978
GXIBA-1                 
1 67684U 98067YA  26050.55169550  .00063458  00000+0  10517-2 0  9991
2 67684  51.6315 161.7905 0011790 118.7570 241.4605 15.51472052  1971
CORAL                   
1 67685U 98067YB  26050.49261918  .00039975  00000+0  69034-3 0  9992
2 67685  51.6320 162.1452 0012171 122.1026 238.1146 15.50514255  1962
ISS OBJECT YC           
1 67686U 98067YC  26050.68473037  .00046265  00000+0  79148-3 0  9998
2 67686  51.6322 161.1785 0007741  94.6086 265.5788 15.50761739  1999
LEOPARD                 
1 67687U 98067YD  26051.13767676  .00034683  00000+0  60213-3 0  9999
2 67687  51.6321 158.9536 0007830  98.4868 261.7009 15.50480550  1988
ISS OBJECT YE           
1 67688U 98067YE  26050.55633532  .00043193  00000+0  74278-3 0  9990
2 67688  51.6330 161.8218 0007725  94.7848 265.4023 15.50645417  1891
CREW DRAGON 12          
1 67796U 26031A   26050.82880434  .00062824  00000+0  11723-2 0  9994
2 67796  51.6323 160.6397 0008552 112.9938 247.1953 15.48149648553657
