CCSDS_OMM_VERS = 2.0
CREATION_DATE  = 
ORIGINATOR     = 

OBJECT_NAME    = ISS OBJECT XW
OBJECT_ID      = 1998-067XW
CENTER_NAME    = EARTH
REF_FRAME      = TEME
TIME_SYSTEM    = UTC
MEAN_ELEMENT_THEORY = SGP/SGP4

EPOCH          = 2026-02-19T17:02:48.421824
MEAN_MOTION    = 15.63947366
ECCENTRICITY   = .00033552
INCLINATION    = 51.6263
RA_OF_ASC_NODE = 156.8403
ARG_OF_PERICENTER = 358.0984
MEAN_ANOMALY   = 1.9997

EPHEMERIS_TYPE = 0
CLASSIFICATION_TYPE = U
NORAD_CAT_ID   = 66910
ELEMENT_SET_NO = 999
REV_AT_EPOCH   = 1236
BSTAR          = .10922474E-2
MEAN_MOTION_DOT = .105802E-2
MEAN_MOTION_DDOT = 0

CCSDS_OMM_VERS = 2.0
CREATION_DATE  = 
ORIGINATOR     = 

OBJECT_NAME    = ISS OBJECT XX
OBJECT_ID      = 1998-067XX
CENTER_NAME    = EARTH
REF_FRAME      = TEME
TIME_SYSTEM    = UTC
MEAN_ELEMENT_THEORY = SGP/SGP4

EPOCH          = 2026-02-19T12:21:39.663360
MEAN_MOTION    = 15.67669066
ECCENTRICITY   = .00051939
INCLINATION    = 51.6244
RA_OF_ASC_NODE = 157.0316
ARG_OF_PERICENTER = 349.8357
MEAN_ANOMALY   = 10.2534

EPHEMERIS_TYPE = 0
CLASSIFICATION_TYPE = U
NORAD_CAT_ID   = 66911
ELEMENT_SET_NO = 999
REV_AT_EPOCH   = 1233
BSTAR          = .13523447E-2
MEAN_MOTION_DOT = .153219E-2
MEAN_MOTION_DDOT = 0

CCSDS_OMM_VERS = 2.0
CREATION_DATE  = 
ORIGINATOR     = 

OBJECT_NAME    = ISS OBJECT XY
OBJECT_ID      = 1998-067XY
CENTER_NAME    = EARTH
REF_FRAME      = TEME
TIME_SYSTEM    = UTC
MEAN_ELEMENT_THEORY = SGP/SGP4

EPOCH          = 2026-02-19T12:56:18.005856
MEAN_MOTION    = 15.60432947
ECCENTRICITY   = .0001436
INCLINATION    = 51.6295
RA_OF_ASC_NODE = 158.7086
ARG_OF_PERICENTER = 4.3169
MEAN_ANOMALY   = 355.7836

EPHEMERIS_TYPE = 0
CLASSIFICATION_TYPE = U
NORAD_CAT_ID   = 66912
ELEMENT_SET_NO = 999
REV_AT_EPOCH   = 1231
BSTAR          = .84295E-3
MEAN_MOTION_DOT = .70748E-3
MEAN_MOTION_DDOT = 0

CCSDS_OMM_VERS = 2.0
CREATION_DATE  = 
ORIGINATOR     = 

OBJECT_NAME    = ISS OBJECT XZ
OBJECT_ID      = 1998-067XZ
CENTER_NAME    = EARTH
REF_FRAME      = TEME
TIME_SYSTEM    = UTC
MEAN_ELEMENT_THEORY = SGP/SGP4

EPOCH          = 2026-02-19T13:23:58.452288
MEAN_MOTION    = 15.50320477
ECCENTRICITY   = .0010271
INCLINATION    = 51.6324
RA_OF_ASC_NODE = 161.8342
ARG_OF_PERICENTER = 126.3506
MEAN_ANOMALY   = 233.8432

EPHEMERIS_TYPE = 0
CLASSIFICATION_TYPE = U
NORAD_CAT_ID   = 67683
ELEMENT_SET_NO = 999
REV_AT_EPOCH   = 197
BSTAR          = .60149E-3
MEAN_MOTION_DOT = .34476E-3
MEAN_MOTION_DDOT = 0

CCSDS_OMM_VERS = 2.0
CREATION_DATE  = 
ORIGINATOR     = 

OBJECT_NAME    = GXIBA-1
OBJECT_ID      = 1998-067YA
CENTER_NAME    = EARTH
REF_FRAME      = TEME
TIME_SYSTEM    = UTC
MEAN_ELEMENT_THEORY = SGP/SGP4

EPOCH          = 2026-02-19T13:14:26.491200
MEAN_MOTION    = 15.51472052
ECCENTRICITY   = .001179
INCLINATION    = 51.6315
RA_OF_ASC_NODE = 161.7905
ARG_OF_PERICENTER = 118.7570
MEAN_ANOMALY   = 241.4605

EPHEMERIS_TYPE = 0
CLASSIFICATION_TYPE = U
NORAD_CAT_ID   = 67684
ELEMENT_SET_NO = 999
REV_AT_EPOCH   = 197
BSTAR          = .10517E-2
MEAN_MOTION_DOT = .63458E-3
MEAN_MOTION_DDOT = 0

CCSDS_OMM_VERS = 2.0
CREATION_DATE  = 
ORIGINATOR     = 

OBJECT_NAME    = CORAL
OBJECT_ID      = 1998-067YB
CENTER_NAME    = EARTH
REF_FRAME      = TEME
TIME_SYSTEM    = UTC
MEAN_ELEMENT_THEORY = SGP/SGP4

EPOCH          = 2026-02-19T11:49:22.297152
MEAN_MOTION    = 15.50514255
ECCENTRICITY   = .0012171
INCLINATION    = 51.6320
RA_OF_ASC_NODE = 162.1452
ARG_OF_PERICENTER = 122.1026
MEAN_ANOMALY   = 238.1146

EPHEMERIS_TYPE = 0
CLASSIFICATION_TYPE = U
NORAD_CAT_ID   = 67685
ELEMENT_SET_NO = 999
REV_AT_EPOCH   = 196
BSTAR          = .69034E-3
MEAN_MOTION_DOT = .39975E-3
MEAN_MOTION_DDOT = 0

CCSDS_OMM_VERS = 2.0
CREATION_DATE  = 
ORIGINATOR     = 

OBJECT_NAME    = ISS OBJECT YC
OBJECT_ID      = 1998-067YC
CENTER_NAME    = EARTH
REF_FRAME      = TEME
TIME_SYSTEM    = UTC
MEAN_ELEMENT_THEORY = SGP/SGP4

EPOCH          = 2026-02-19T16:26:00.703968
MEAN_MOTION    = 15.50761739
ECCENTRICITY   = .00077413
INCLINATION    = 51.6322
RA_OF_ASC_NODE = 161.1785
ARG_OF_PERICENTER = 94.6086
MEAN_ANOMALY   = 265.5788

EPHEMERIS_TYPE = 0
CLASSIFICATION_TYPE = U
NORAD_CAT_ID   = 67686
ELEMENT_SET_NO = 999
REV_AT_EPOCH   = 199
BSTAR          = .79147519E-3
MEAN_MOTION_DOT = .46265E-3
MEAN_MOTION_DDOT = 0

CCSDS_OMM_VERS = 2.0
CREATION_DATE  = 
ORIGINATOR     = 

OBJECT_NAME    = LEOPARD
OBJECT_ID      = 1998-067YD
CENTER_NAME    = EARTH
REF_FRAME      = TEME
TIME_SYSTEM    = UTC
MEAN_ELEMENT_THEORY = SGP/SGP4

EPOCH          = 2026-02-20T03:18:15.272064
MEAN_MOTION    = 15.50480550
ECCENTRICITY   = .000783
INCLINATION    = 51.6321
RA_OF_ASC_NODE = 158.9536
ARG_OF_PERICENTER = 98.4868
MEAN_ANOMALY   = 261.7009

EPHEMERIS_TYPE = 0
CLASSIFICATION_TYPE = U
NORAD_CAT_ID   = 67687
ELEMENT_SET_NO = 999
REV_AT_EPOCH   = 198
BSTAR          = .60213E-3
MEAN_MOTION_DOT = .34683E-3
MEAN_MOTION_DDOT = 0

CCSDS_OMM_VERS = 2.0
CREATION_DATE  = 
ORIGINATOR     = 

OBJECT_NAME    = ISS OBJECT YE
OBJECT_ID      = 1998-067YE
CENTER_NAME    = EARTH
REF_FRAME      = TEME
TIME_SYSTEM    = UTC
MEAN_ELEMENT_THEORY = SGP/SGP4

EPOCH          = 2026-02-19T13:21:07.371648
MEAN_MOTION    = 15.50645417
ECCENTRICITY   = .0007725
INCLINATION    = 51.6330
RA_OF_ASC_NODE = 161.8218
ARG_OF_PERICENTER = 94.7848
MEAN_ANOMALY   = 265.4023

EPHEMERIS_TYPE = 0
CLASSIFICATION_TYPE = U
NORAD_CAT_ID   = 67688
ELEMENT_SET_NO = 999
REV_AT_EPOCH   = 189
BSTAR          = .74278E-3
MEAN_MOTION_DOT = .43193E-3
MEAN_MOTION_DDOT = 0

CCSDS_OMM_VERS = 2.0
CREATION_DATE  = 
ORIGINATOR     = 

OBJECT_NAME    = CREW DRAGON 12
OBJECT_ID      = 2026-031A
CENTER_NAME    = EARTH
REF_FRAME      = TEME
TIME_SYSTEM    = UTC
MEAN_ELEMENT_THEORY = SGP/SGP4

EPOCH          = 2026-02-19T19:53:28.694976
MEAN_MOTION    = 15.48149648
ECCENTRICITY   = .0008552
INCLINATION    = 51.6323
RA_OF_ASC_NODE = 160.6397
ARG_OF_PERICENTER = 112.9938
MEAN_ANOMALY   = 247.1953

EPHEMERIS_TYPE = 0
CLASSIFICATION_TYPE = U
NORAD_CAT_ID   = 67796
ELEMENT_SET_NO = 999
REV_AT_EPOCH   = 55365
BSTAR          = .11723307E-2
MEAN_MOTION_DOT = .62824E-3
MEAN_MOTION_DDOT = 0

